{
    "links": {
        "self": "http://www.neowsapp.com/rest/v1/neo/3795081?api_key=iIulBulltgU6a56xZRHN4H3l9WmuAYTsLGpBGhQ2"
    },
    "id": "3795081",
    "neo_reference_id": "3795081",
    "name": "(2017 YL5)",
    "designation": "2017 YL5",
    "nasa_jpl_url": "http://ssd.jpl.nasa.gov/sbdb.cgi?sstr=3795081",
    "absolute_magnitude_h": 23.8,
    "estimated_diameter": {
        "kilometers": {
            "estimated_diameter_min": 0.046190746,
            "estimated_diameter_max": 0.1032856481
        },
        "meters": {
            "estimated_diameter_min": 46.1907460282,
            "estimated_diameter_max": 103.2856480504
        },
        "miles": {
            "estimated_diameter_min": 0.0287015901,
            "estimated_diameter_max": 0.0641787064
        },
        "feet": {
            "estimated_diameter_min": 151.544447199,
            "estimated_diameter_max": 338.8636855496
        }
    },
    "is_potentially_hazardous_asteroid": false,
    "close_approach_data": [
        {
            "close_approach_date": "2017-12-31",
            "close_approach_date_full": "2017-Dec-31 20:33",
            "epoch_date_close_approach": 1514752380000,
            "relative_velocity": {
                "kilometers_per_second": "19.6489786489",
                "kilometers_per_hour": "70736.3231361206",
                "miles_per_hour": "43952.8003397745"
            },
            "miss_distance": {
                "astronomical": "0.0420488829",
                "lunar": "16.3570154481",
                "kilometers": "6290423.317719423",
                "miles": "3908687.8013691174"
            },
            "orbiting_body": "Earth"
        }
    ],
    "orbital_data": {
        "orbit_id": "2",
        "orbit_determination_date": "2017-12-28 06:24:38",
        "first_observation_date": "2017-12-25",
        "last_observation_date": "2017-12-27",
        "data_arc_in_days": 2,
        "observations_used": 31,
        "orbit_uncertainty": "9",
        "minimum_orbit_intersection": ".00761299",
        "jupiter_tisserand_invariant": "3.888",
        "epoch_osculation": "2458113.5",
        "eccentricity": ".6753307645264629",
        "semi_major_axis": "1.709021555966854",
        "inclination": "4.267738081204699",
        "ascending_node_longitude": "103.8908597274747",
        "orbital_period": "816.0555779916226",
        "perihelion_distance": ".5548667219835534",
        "perihelion_argument": "88.49572508153837",
        "aphelion_distance": "2.863176389950155",
        "perihelion_time": "2458166.903359459278",
        "mean_anomaly": "336.4412989460168",
        "mean_motion": ".441146423980078",
        "equinox": "J2000",
        "orbit_class": {
            "orbit_class_type": "APO",
            "orbit_class_description": "Near-Earth asteroid orbits which cross the Earth’s orbit similar to that of 1862 Apollo",
            "orbit_class_range": "a (semi-major axis) > 1.0 AU; q (perihelion) < 1.017 AU"
        }
    },
    "is_sentry_object": false
}